{
 "generated_at": "2026-06-14T08:41:33Z",
 "sources": [
  {
   "name": "CelesTrak",
   "url": "https://celestrak.org/NORAD/elements/",
   "license": "frei verfügbar; Attribution. Ursprünglich USSPACECOM/Space-Track."
  },
  {
   "name": "GCAT (J. McDowell, planet4589.org)",
   "url": "https://planet4589.org/space/gcat/",
   "license": "CC-BY 4.0"
  }
 ],
 "satellites": [
  {
   "norad": 43833,
   "name": "SAUDISAT 5B",
   "intl": "2018-102C",
   "group": "resource",
   "gcat": {
    "class": "C",
    "category": "TECH",
    "owner": "KACST",
    "state": "SA"
   },
   "omm": {
    "OBJECT_NAME": "SAUDISAT 5B",
    "OBJECT_ID": "2018-102C",
    "EPOCH": "2026-06-13T23:24:34.904736",
    "MEAN_MOTION": 15.2827664,
    "ECCENTRICITY": 0.00114739,
    "INCLINATION": 97.3182,
    "RA_OF_ASC_NODE": 229.6818,
    "ARG_OF_PERICENTER": 141.3481,
    "MEAN_ANOMALY": 218.8583,
    "EPHEMERIS_TYPE": 0,
    "CLASSIFICATION_TYPE": "U",
    "NORAD_CAT_ID": 43833,
    "ELEMENT_SET_NO": 999,
    "REV_AT_EPOCH": 41530,
    "BSTAR": 0.00021318505,
    "MEAN_MOTION_DOT": 0.00005809,
    "MEAN_MOTION_DDOT": 0
   }
  },
  {
   "norad": 41790,
   "name": "SCATSAT 1",
   "intl": "2016-059H",
   "group": "resource",
   "gcat": {
    "class": null,
    "category": null,
    "owner": null,
    "state": null
   },
   "omm": {
    "OBJECT_NAME": "SCATSAT 1",
    "OBJECT_ID": "2016-059H",
    "EPOCH": "2026-06-13T21:35:05.945568",
    "MEAN_MOTION": 14.79519288,
    "ECCENTRICITY": 0.00532815,
    "INCLINATION": 98.1191,
    "RA_OF_ASC_NODE": 228.6315,
    "ARG_OF_PERICENTER": 258.3738,
    "MEAN_ANOMALY": 101.149,
    "EPHEMERIS_TYPE": 0,
    "CLASSIFICATION_TYPE": "U",
    "NORAD_CAT_ID": 41790,
    "ELEMENT_SET_NO": 999,
    "REV_AT_EPOCH": 10110,
    "BSTAR": 0.00013921641,
    "MEAN_MOTION_DOT": 0.00001008,
    "MEAN_MOTION_DDOT": 0
   }
  },
  {
   "norad": 22490,
   "name": "SCD 1",
   "intl": "1993-009B",
   "group": "resource",
   "gcat": {
    "class": "C",
    "category": "COM",
    "owner": "INPE",
    "state": "BR"
   },
   "omm": {
    "OBJECT_NAME": "SCD 1",
    "OBJECT_ID": "1993-009B",
    "EPOCH": "2026-06-13T20:54:38.928096",
    "MEAN_MOTION": 14.46117773,
    "ECCENTRICITY": 0.00421771,
    "INCLINATION": 24.9681,
    "RA_OF_ASC_NODE": 228.0525,
    "ARG_OF_PERICENTER": 102.7647,
    "MEAN_ANOMALY": 57.9732,
    "EPHEMERIS_TYPE": 0,
    "CLASSIFICATION_TYPE": "U",
    "NORAD_CAT_ID": 22490,
    "ELEMENT_SET_NO": 999,
    "REV_AT_EPOCH": 76063,
    "BSTAR": 0.000048346694,
    "MEAN_MOTION_DOT": 0.00000363,
    "MEAN_MOTION_DDOT": 0
   }
  },
  {
   "norad": 25504,
   "name": "SCD 2",
   "intl": "1998-060A",
   "group": "resource",
   "gcat": {
    "class": "C",
    "category": "COM",
    "owner": "INPE",
    "state": "BR"
   },
   "omm": {
    "OBJECT_NAME": "SCD 2",
    "OBJECT_ID": "1998-060A",
    "EPOCH": "2026-06-13T03:41:54.185568",
    "MEAN_MOTION": 14.45524442,
    "ECCENTRICITY": 0.00169739,
    "INCLINATION": 24.9947,
    "RA_OF_ASC_NODE": 97.029,
    "ARG_OF_PERICENTER": 80.8885,
    "MEAN_ANOMALY": 302.2821,
    "EPHEMERIS_TYPE": 0,
    "CLASSIFICATION_TYPE": "U",
    "NORAD_CAT_ID": 25504,
    "ELEMENT_SET_NO": 999,
    "REV_AT_EPOCH": 45974,
    "BSTAR": 0.000055754164,
    "MEAN_MOTION_DOT": 0.00000382,
    "MEAN_MOTION_DDOT": 0
   }
  },
  {
   "norad": 39634,
   "name": "SENTINEL-1A",
   "intl": "2014-016A",
   "group": "resource",
   "gcat": {
    "class": "C",
    "category": "IMG-R",
    "owner": "ESA",
    "state": "I-ESA"
   },
   "omm": {
    "OBJECT_NAME": "SENTINEL-1A",
    "OBJECT_ID": "2014-016A",
    "EPOCH": "2026-06-13T22:32:03.126048",
    "MEAN_MOTION": 14.59198006,
    "ECCENTRICITY": 0.00014201,
    "INCLINATION": 98.1776,
    "RA_OF_ASC_NODE": 172.5188,
    "ARG_OF_PERICENTER": 82.9624,
    "MEAN_ANOMALY": 277.1737,
    "EPHEMERIS_TYPE": 0,
    "CLASSIFICATION_TYPE": "U",
    "NORAD_CAT_ID": 39634,
    "ELEMENT_SET_NO": 999,
    "REV_AT_EPOCH": 64954,
    "BSTAR": -0.00011413811,
    "MEAN_MOTION_DOT": -0.00000584,
    "MEAN_MOTION_DDOT": 0
   }
  },
  {
   "norad": 62261,
   "name": "SENTINEL-1C",
   "intl": "2024-235A",
   "group": "sar",
   "gcat": {
    "class": "C",
    "category": "IMG-R",
    "owner": "COPERN/ESA",
    "state": "I-EU"
   },
   "omm": {
    "OBJECT_NAME": "SENTINEL-1C",
    "OBJECT_ID": "2024-235A",
    "EPOCH": "2026-06-13T23:23:18.206592",
    "MEAN_MOTION": 14.58603314,
    "ECCENTRICITY": 0.00013606,
    "INCLINATION": 98.1828,
    "RA_OF_ASC_NODE": 172.3335,
    "ARG_OF_PERICENTER": 89.3544,
    "MEAN_ANOMALY": 270.7811,
    "EPHEMERIS_TYPE": 0,
    "CLASSIFICATION_TYPE": "U",
    "NORAD_CAT_ID": 62261,
    "ELEMENT_SET_NO": 999,
    "REV_AT_EPOCH": 8094,
    "BSTAR": 0.000010995342,
    "MEAN_MOTION_DOT": 6e-8,
    "MEAN_MOTION_DDOT": 0
   }
  },
  {
   "norad": 66315,
   "name": "SENTINEL-1D",
   "intl": "2025-251A",
   "group": "sar",
   "gcat": {
    "class": "C",
    "category": "IMG-R",
    "owner": "COPERN/ESA",
    "state": "I-EU"
   },
   "omm": {
    "OBJECT_NAME": "SENTINEL-1D",
    "OBJECT_ID": "2025-251A",
    "EPOCH": "2026-06-13T22:39:34.641216",
    "MEAN_MOTION": 14.59197614,
    "ECCENTRICITY": 0.00013585,
    "INCLINATION": 98.1827,
    "RA_OF_ASC_NODE": 172.3495,
    "ARG_OF_PERICENTER": 88.001,
    "MEAN_ANOMALY": 272.1345,
    "EPHEMERIS_TYPE": 0,
    "CLASSIFICATION_TYPE": "U",
    "NORAD_CAT_ID": 66315,
    "ELEMENT_SET_NO": 999,
    "REV_AT_EPOCH": 3225,
    "BSTAR": 0.000045646938,
    "MEAN_MOTION_DOT": 0.00000169,
    "MEAN_MOTION_DDOT": 0
   }
  },
  {
   "norad": 40697,
   "name": "SENTINEL-2A",
   "intl": "2015-028A",
   "group": "resource",
   "gcat": {
    "class": "C",
    "category": "IMG",
    "owner": "COPERN/ESA",
    "state": "I-EU"
   },
   "omm": {
    "OBJECT_NAME": "SENTINEL-2A",
    "OBJECT_ID": "2015-028A",
    "EPOCH": "2026-06-13T22:16:16.766976",
    "MEAN_MOTION": 14.30813454,
    "ECCENTRICITY": 0.00011052,
    "INCLINATION": 98.569,
    "RA_OF_ASC_NODE": 239.8255,
    "ARG_OF_PERICENTER": 90.6186,
    "MEAN_ANOMALY": 269.5124,
    "EPHEMERIS_TYPE": 0,
    "CLASSIFICATION_TYPE": "U",
    "NORAD_CAT_ID": 40697,
    "ELEMENT_SET_NO": 999,
    "REV_AT_EPOCH": 57326,
    "BSTAR": -0.00004391015,
    "MEAN_MOTION_DOT": -0.00000159,
    "MEAN_MOTION_DDOT": 0
   }
  },
  {
   "norad": 42063,
   "name": "SENTINEL-2B",
   "intl": "2017-013A",
   "group": "resource",
   "gcat": {
    "class": "C",
    "category": "IMG",
    "owner": "COPERN/ESA",
    "state": "I-EU"
   },
   "omm": {
    "OBJECT_NAME": "SENTINEL-2B",
    "OBJECT_ID": "2017-013A",
    "EPOCH": "2026-06-13T22:05:55.116384",
    "MEAN_MOTION": 14.30815061,
    "ECCENTRICITY": 0.00011799,
    "INCLINATION": 98.5697,
    "RA_OF_ASC_NODE": 239.741,
    "ARG_OF_PERICENTER": 85.8172,
    "MEAN_ANOMALY": 274.3146,
    "EPHEMERIS_TYPE": 0,
    "CLASSIFICATION_TYPE": "U",
    "NORAD_CAT_ID": 42063,
    "ELEMENT_SET_NO": 999,
    "REV_AT_EPOCH": 48417,
    "BSTAR": -0.000041937866,
    "MEAN_MOTION_DOT": -0.00000154,
    "MEAN_MOTION_DDOT": 0
   }
  },
  {
   "norad": 60989,
   "name": "SENTINEL-2C",
   "intl": "2024-157A",
   "group": "resource",
   "gcat": {
    "class": "C",
    "category": "IMG",
    "owner": "COPERN/ESA",
    "state": "I-EU"
   },
   "omm": {
    "OBJECT_NAME": "SENTINEL-2C",
    "OBJECT_ID": "2024-157A",
    "EPOCH": "2026-06-13T19:34:53.887872",
    "MEAN_MOTION": 14.30816912,
    "ECCENTRICITY": 0.00010801,
    "INCLINATION": 98.5692,
    "RA_OF_ASC_NODE": 239.6455,
    "ARG_OF_PERICENTER": 79.7053,
    "MEAN_ANOMALY": 280.4251,
    "EPHEMERIS_TYPE": 0,
    "CLASSIFICATION_TYPE": "U",
    "NORAD_CAT_ID": 60989,
    "ELEMENT_SET_NO": 999,
    "REV_AT_EPOCH": 9250,
    "BSTAR": 0.000050483638,
    "MEAN_MOTION_DOT": 8.9e-7,
    "MEAN_MOTION_DDOT": 0
   }
  }
 ]
}
